C/2007 D1 (LINEAR),e,41.4858,170.9472,340.1954,2529,0.0000077,0.99651966,0.0000,06/17.4199/2007,2000,g  3.5,4.0
# From MPC 66464
C/2007 G1 (LINEAR),e,88.4302,79.0220,223.8781,3526,0.0000047,0.99924918,0.0000,11/13.0312/2008,2000,g  5.5,4.0
# From MPC 82314
P/2007 K2 (Gibbs),e,7.6587,188.6477,347.4811,7.249889,0.0504902,0.68591629,159.1876,01/30.0/2016,2000,g 14.0,4.0
# From MPC 82314
C/2007 K3 (Siding Spring),e,16.3306,263.2444,23.3562,1409,0.0000186,0.99855249,0.0000,04/19.4655/2008,2000,g  9.5,4.0
# From MPC 87475
C/2007 M1 (McNaught),e,139.6723,326.9234,52.6150,1364,0.0000196,0.99453091,0.0000,08/08.8862/2008,2000,g  6.0,4.0
# From MPC 68392
C/2007 M2 (Catalina),e,81.1244,357.2218,220.6551,1230,0.0000228,0.99712169,0.0000,12/08.8707/2008,2000,g  8.0,4.0
# From MPC 73461
C/2007 N3 (Lulin),e,178.3764,338.2205,136.5927,1148,0.0000253,0.99893409,0.0000,01/07.1706/2009,2000,g  6.5,4.0
# From MPC 60925
P/2007 Q2 (Gilmore),e,10.2243,172.2643,163.1809,5.616143,0.0740537,0.66969543,229.0973,01/30.0/2016,2000,g 16.0,4.0
# From MPC 78183
C/2007 Q3 (Siding Spring),h,10/07.8018/2009,65.7350,149.2738,2.2062,1.000353,2.257170,2000,4.5,4.0
# From MPC 75514
P/2007 R1 (Larson),e,7.8701,181.6675,175.3262,6.050413,0.0662257,0.27677033,204.6616,01/30.0/2016,2000,g  8.0,4.0
# From MPC 75708
P/2007 R2 (Gibbs),e,1.4023,9.3923,353.8471,3.488218,0.1512859,0.57157583,112.2316,01/30.0/2016,2000,g 17.0,4.0
# From MPC 82314
P/2007 R3 (Gibbs),e,3.7933,30.0694,312.2135,4.300428,0.1105189,0.41380486,346.9110,01/30.0/2016,2000,g 13.5,4.0
# From MPC 75708
P/2007 R4 (Garradd),e,20.1968,87.3626,283.1308,5.875354,0.0692075,0.66903057,211.4489,01/30.0/2016,2000,g 14.5,4.0
# From MPC 73462
P/2007 S1 (Zhao),e,5.9734,141.5262,245.7344,3.798407,0.1331379,0.34329145,35.2922,01/30.0/2016,2000,g 13.0,4.0
# From MPC 82314
C/2007 S2 (Lemmon),e,16.8734,296.0571,210.5643,12.55330,0.0221599,0.55724733,59.6769,01/30.0/2016,2000,g  6.5,4.0
# From MPC 62270
C/2007 T1 (McNaught),e,117.4793,111.3896,233.7263,1801,0.0000129,0.99945977,0.0000,12/08.6743/2007,2000,g 10.5,4.0
# From MPC 61994
P/2007 T2 (Kowalski),e,9.9479,3.8624,358.5837,3.081644,0.1821925,0.77748206,194.5413,01/30.0/2016,2000,g 18.5,4.0
# From MPC 62879
P/2007 T4 (Gibbs),e,23.8641,37.0888,42.5267,5.240666,0.0821532,0.61835698,255.6269,01/30.0/2016,2000,g 13.0,4.0
# From MPC 65935
C/2007 T5 (Gibbs),e,45.6423,109.7627,34.4961,46.78593,0.0030799,0.91336151,8.6404,01/30.0/2016,2000,g  8.0,4.0
# From MPC 75708
P/2007 T6 (Catalina),e,22.1823,102.5241,335.8890,4.477622,0.1040238,0.50406326,320.2274,01/30.0/2016,2000,g 12.5,4.0
# From MPC 66921
C/2007 U1 (LINEAR),h,08/09.1927/2008,157.7591,50.3850,1.3915,1.001167,3.332984,2000,9.0,4.0
# From MPC 75708
P/2007 V1 (Larson),e,10.7601,7.9414,51.7450,4.971705,0.0889091,0.46239671,264.1337,01/30.0/2016,2000,g 12.0,4.0
# From MPC 75708
P/2007 VQ11 (Catalina),e,12.3256,163.8218,277.8807,5.411080,0.0783030,0.50333472,227.4320,01/30.0/2016,2000,g 12.0,4.0
# From MPC 81468
C/2007 VO53 (Spacewatch),h,04/26.6139/2010,86.9414,59.7119,75.1509,1.001605,4.850108,2000,7.0,4.0
# From MPEC 2016-AA1
P/2007 VA85 (LINEAR),e,131.8777,115.5653,26.1438,4.225006,0.1134914,0.73605705,352.6356,01/30.0/2016,2000,g 15.0,4.0
# From MPC 63599
C/2007 W1 (Boattini),e,9.8808,334.8847,306.0681,1115,0.0000265,0.99924210,0.0000,06/22.6491/2008,2000,g  9.5,4.0
# From MPC 63376
C/2007 W3 (LINEAR),e,78.6602,72.9356,112.4155,3297,0.0000052,0.99946647,0.0000,06/04.6380/2008,2000,g 12.0,4.0
# From MPC 62271
C/2007 Y1 (LINEAR),e,110.2194,132.9645,357.2019,6026,0.0000021,0.99944254,0.0000,03/18.2444/2008,2000,g 10.5,4.0
# From MPC 62271
C/2007 Y2 (McNaught),e,98.5746,303.4625,257.7572,1006,0.0000309,0.99582019,0.0000,04/11.1821/2008,2000,g  9.0,4.0
# From MPC 65935
C/2008 A1 (McNaught),e,82.5685,277.9220,348.2632,2765,0.0000068,0.99961531,0.0000,09/27.7638/2008,2000,g  6.5,4.0
# From MPC 62582
C/2008 C1 (Chen-Gao),e,61.9443,307.6375,181.0291,6344,0.0000020,0.99980048,0.0000,04/18.1381/2008,2000,g 10.0,4.0
# From MPC 75708
P/2008 CL94 (Lemmon),e,8.3538,33.3598,81.3699,6.148937,0.0646404,0.12121987,226.2285,01/30.0/2016,2000,g  8.0,4.0
# From MPC 64113
C/2008 E1 (Catalina),e,34.8246,188.8224,270.7163,10.81463,0.0277132,0.55079689,75.5046,01/30.0/2016,2000,g  7.0,4.0
# From MPC 68392
C/2008 E3 (Garradd),e,105.0857,105.7310,217.9816,1189,0.0000240,0.99535548,0.0000,07/29.5519/2008,2000,g  6.0,4.0
# From MPC 88324
C/2008 FK75 (Lemmon-Siding Spring),h,09/28.8076/2010,61.2693,218.2733,80.4041,1.000093,4.508951,2000,5.0,4.0
# From MPC 82314
C/2008 G1 (Gibbs),e,73.0326,215.9182,63.6796,273.0744,0.0002184,0.98538680,0.0000,01/10.3617/2009,2000,g  9.5,4.0
# From MPC 63137
C/2008 H1 (LINEAR),e,75.3946,34.4605,95.9814,50.80466,0.0027218,0.94581118,7.8249,01/30.0/2016,2000,g 10.5,4.0
# From MPC 65054
C/2008 J1 (Boattini),e,61.7603,273.4641,68.1923,158.1244,0.0004957,0.98902800,0.0000,07/09.3104/2008,2000,g 10.0,4.0
# From MPC 75709
P/2008 J3 (McNaught),e,25.3505,9.8112,4.5875,3.904785,0.1277346,0.41053561,321.9360,01/30.0/2016,2000,g 12.0,4.0
# From MPC 63376
C/2008 J5 (Garradd),e,93.2927,287.1469,313.0631,68.26290,0.0017475,0.97153674,0.0000,04/01.9719/2008,2000,g 12.0,4.0
# From MPC 82314
C/2008 J6 (Hill),h,04/08.0232/2008,44.9335,298.2698,10.5654,1.000868,2.001144,2000,10.5,4.0
# From MPC 75709
P/2008 L2 (Hill),e,25.8271,218.0228,141.4306,6.020504,0.0667198,0.61180824,182.0038,01/30.0/2016,2000,g 12.5,4.0
# From MPC 68902
C/2008 N1 (Holmes),e,115.3880,357.3424,100.6854,878.3680,0.0000379,0.99683030,0.0000,09/23.8038/2009,2000,g  9.0,4.0
# From MPC 75709
P/2008 O2 (McNaught),e,9.5132,325.8493,27.1139,4.493118,0.1034862,0.15092473,256.9905,01/30.0/2016,2000,g  9.0,4.0
# From MPC 64114
P/2008 O3 (Boattini),e,32.2077,47.6142,341.2625,8.239126,0.0416756,0.69361886,116.7807,01/30.0/2016,2000,g 13.0,4.0
# From MPC 82314
C/2008 P1 (Garradd),e,64.2441,357.8131,11.8406,11517,0.0000008,0.99966135,0.0000,07/21.0746/2009,2000,g  7.0,4.0
# From MPC 65935
C/2008 Q1 (Maticic),e,118.5110,9.1345,104.2637,558.4084,0.0000747,0.99471038,0.0000,12/28.3165/2008,2000,g 10.0,4.0
# From MPC 80896
C/2008 Q3 (Garradd),e,140.7888,219.5451,340.5858,1224,0.0000230,0.99853044,0.0000,06/20.4600/2009,2000,g 10.0,4.0
# From MPC 75709
P/2008 QP20 (LINEAR-Hill),e,7.7412,324.9676,72.3874,3.492729,0.1509930,0.50647819,38.9022,01/30.0/2016,2000,g 15.5,4.0
# From MPC 64115
C/2008 R3 (LINEAR),e,43.2196,270.6062,84.2608,18.31078,0.0125789,0.89496779,33.0677,01/30.0/2016,2000,g 13.0,4.0
# From MPC 95207
C/2008 S3 (Boattini),h,06/10.2047/2011,162.7014,55.0299,40.1554,1.003751,8.014636,2000,4.0,4.0
# From MPC 82717
P/2008 T1 (Boattini),e,2.0789,291.7416,35.8238,4.248783,0.1125401,0.27911145,326.9850,01/30.0/2016,2000,g 11.0,4.0
# From MPC 66921
C/2008 T2 (Cardinal),h,06/15.1867/2009,56.4215,309.6624,215.8345,1.000076,1.198225,2000,6.0,4.0
# From MPC 75710
P/2008 T4 (Hill),e,6.3096,44.6238,1.6340,4.462462,0.1045544,0.43433222,271.0454,01/30.0/2016,2000,g 13.5,4.0
# From MPC 66204
P/2008 WZ96 (LINEAR),e,6.9574,59.0254,337.9036,3.361777,0.1599008,0.50989779,49.5632,01/30.0/2016,2000,g 13.5,4.0
# From MPC 65057
C/2008 X3 (LINEAR),e,66.5062,337.4930,140.9339,43.57635,0.0034263,0.95618907,9.1409,01/30.0/2016,2000,g 13.0,4.0
# From MPC 65935
P/2008 Y1 (Boattini),e,8.9173,259.3376,162.8108,4.801995,0.0936637,0.73608367,236.4211,01/30.0/2016,2000,g 15.0,4.0
# From MPC 75710
P/2008 Y2 (Gibbs),e,7.2875,330.8629,162.3311,3.582189,0.1453722,0.54514313,12.3603,01/30.0/2016,2000,g 16.0,4.0
# From MPC 75710
P/2008 Y3 (McNaught),e,38.8142,262.8466,238.3344,8.031666,0.0433008,0.44832011,111.3746,01/30.0/2016,2000,g  8.5,4.0
# From MPC 88693
P/2008 Y12 (SOHO),e,23.5801,309.8450,144.3269,3.076623,0.1826387,0.97810137,0.0000,05/17.8859/2014,2000,g  9.0,4.0
# From MPC 75710
P/2009 B1 (Boattini),e,22.2295,297.0591,129.1907,6.724034,0.0565274,0.63594996,144.2601,01/30.0/2016,2000,g 13.0,4.0
# From MPC 82315
C/2009 B2 (LINEAR),e,156.9447,18.7216,192.4475,40.40178,0.0038380,0.94200521,9.6841,01/30.0/2016,2000,g 12.5,4.0
# From MPC 72850
C/2009 E1 (Itagaki),e,127.4977,105.9711,48.9078,40.38420,0.0038405,0.98526584,0.0000,04/09.9305/2009,2000,g 11.5,4.0
# From MPC 82315
C/2009 F1 (Larson),e,171.4042,357.9613,219.8497,95.44997,0.0010569,0.98059999,0.0000,06/24.0906/2009,2000,g 15.0,4.0
# From MPC 80256
C/2009 F2 (McNaught),e,59.3388,213.9382,336.3146,345.8607,0.0001532,0.98302499,0.0000,11/13.7882/2009,2000,g  6.0,4.0
# From MPC 95208
C/2009 F4 (McNaught),e,79.4079,53.5598,260.3877,5593,0.0000024,0.99902454,0.0000,12/31.5149/2011,2000,g  3.0,4.0
# From MPC 66204
C/2009 F5 (McNaught),e,84.9521,218.8450,297.2159,78.48825,0.0014174,0.97151975,0.0000,11/05.1841/2008,2000,g 10.0,4.0
# From MPC 72850
C/2009 F6 (Yi-SWAN),e,85.7216,278.6891,129.9923,509.4671,0.0000857,0.99746822,0.0000,05/05.6526/2009,2000,g  6.0,4.0
# From MPC 66466
C/2009 G1 (STEREO),e,108.2252,120.7518,175.3154,404.1996,0.0001213,0.99722735,0.0000,04/15.1222/2009,2000,g  9.0,4.0
# From MPC 67147
P/2009 K1 (Gibbs),e,5.7438,172.7723,27.4435,3.691251,0.1389773,0.63707405,335.4840,01/30.0/2016,2000,g 17.0,4.0
# From MPC 82315
C/2009 K2 (Catalina),e,66.8258,123.8251,147.4796,832.8468,0.0000410,0.99612235,0.0000,02/07.5482/2010,2000,g 10.0,4.0
# From MPC 66205
C/2009 K3 (Beshore),p,01/09.266/2011,146.680,251.413,3.90156,0.032,2000,8.5,4.0
# From MPC 66703
C/2009 K4 (Gibbs),e,34.8353,29.8279,127.6028,42.12852,0.0036045,0.96336817,8.7010,01/30.0/2016,2000,g 13.0,4.0
# From MPC 82315
C/2009 K5 (McNaught),e,104.0681,257.9571,66.1835,1690,0.0000142,0.99915509,0.0000,04/27.6709/2010,2000,g  7.5,4.0
# From MPC 69905
C/2009 O2 (Catalina),e,107.9712,310.1037,133.5326,253.5973,0.0002441,0.99722007,0.0000,03/23.4458/2010,2000,g 11.0,4.0
# From MPC 75710
P/2009 O3 (Hill),e,16.2090,183.8255,154.3900,7.790263,0.0453290,0.68460872,111.2202,01/30.0/2016,2000,g 12.5,4.0
# From MPC 67147
C/2009 O4 (Hill),h,12/30.7532/2009,95.6395,172.9940,223.7375,1.000556,2.564745,2000,10.0,4.0
# From MPC 89309
